{
    "links": {
        "self": "http://www.neowsapp.com/rest/v1/neo/3423200?api_key=iIulBulltgU6a56xZRHN4H3l9WmuAYTsLGpBGhQ2"
    },
    "id": "3423200",
    "neo_reference_id": "3423200",
    "name": "(2008 PK3)",
    "designation": "2008 PK3",
    "nasa_jpl_url": "http://ssd.jpl.nasa.gov/sbdb.cgi?sstr=3423200",
    "absolute_magnitude_h": 22.0,
    "estimated_diameter": {
        "kilometers": {
            "estimated_diameter_min": 0.1058168859,
            "estimated_diameter_max": 0.2366137501
        },
        "meters": {
            "estimated_diameter_min": 105.8168859331,
            "estimated_diameter_max": 236.6137501138
        },
        "miles": {
            "estimated_diameter_min": 0.0657515442,
            "estimated_diameter_max": 0.1470249225
        },
        "feet": {
            "estimated_diameter_min": 347.1682720448,
            "estimated_diameter_max": 776.2918559233
        }
    },
    "is_potentially_hazardous_asteroid": false,
    "close_approach_data": [
        {
            "close_approach_date": "2008-02-17",
            "close_approach_date_full": "2008-Feb-17 05:58",
            "epoch_date_close_approach": 1203227880000,
            "relative_velocity": {
                "kilometers_per_second": "17.5524719179",
                "kilometers_per_hour": "63188.8989045185",
                "miles_per_hour": "39263.1244331993"
            },
            "miss_distance": {
                "astronomical": "0.0929966932",
                "lunar": "36.1757136548",
                "kilometers": "13912107.219763484",
                "miles": "8644582.5717407192"
            },
            "orbiting_body": "Mars"
        },
        {
            "close_approach_date": "2008-07-22",
            "close_approach_date_full": "2008-Jul-22 09:41",
            "epoch_date_close_approach": 1216719660000,
            "relative_velocity": {
                "kilometers_per_second": "17.1210318275",
                "kilometers_per_hour": "61635.7145788333",
                "miles_per_hour": "38298.0360948312"
            },
            "miss_distance": {
                "astronomical": "0.04379746",
                "lunar": "17.03721194",
                "kilometers": "6552006.7274102",
                "miles": "4071228.19505276"
            },
            "orbiting_body": "Earth"
        }
    ],
    "orbital_data": {
        "orbit_id": "8",
        "orbit_determination_date": "2017-04-06 09:03:07",
        "first_observation_date": "2008-08-03",
        "last_observation_date": "2008-08-12",
        "data_arc_in_days": 9,
        "observations_used": 18,
        "orbit_uncertainty": "8",
        "minimum_orbit_intersection": ".000320917",
        "jupiter_tisserand_invariant": "3.674",
        "epoch_osculation": "2454685.5",
        "eccentricity": ".5983448162196453",
        "semi_major_axis": "1.891514992135772",
        "inclination": "17.08345383085665",
        "ascending_node_longitude": "122.8350625027551",
        "orbital_period": "950.1958048399462",
        "perihelion_distance": ".7597368017895896",
        "perihelion_argument": "108.989730624255",
        "aphelion_distance": "3.023293182481954",
        "perihelion_time": "2454623.942818249447",
        "mean_anomaly": "23.32212510023855",
        "mean_motion": ".3788692795382732",
        "equinox": "J2000",
        "orbit_class": {
            "orbit_class_type": "APO",
            "orbit_class_description": "Near-Earth asteroid orbits which cross the Earth’s orbit similar to that of 1862 Apollo",
            "orbit_class_range": "a (semi-major axis) > 1.0 AU; q (perihelion) < 1.017 AU"
        }
    },
    "is_sentry_object": false
}